[{"norad_id":"45142","company":"ONEWEB","tle_line2":"2 45142  87.8904 134.2330 0001994 103.5646 256.5703 13.10375046243858","launch_date":"2020-02-06","type":"LEO","tle_line1":"1 45142U 20008M   25041.76870202  .00000448  00000+0  12461-2 0  9991","satellite_name":"ONEWEB-0033"},{"norad_id":"45143","company":"ONEWEB","tle_line2":"2 45143  87.8905 134.2211 0001896 106.6904 253.4431 13.10368491243580","launch_date":"2020-02-06","type":"LEO","tle_line1":"1 45143U 20008N   25041.80022848 -.00000210  00000+0 -63659-3 0  9997","satellite_name":"ONEWEB-0035"},{"norad_id":"45144","company":"ONEWEB","tle_line2":"2 45144  87.8901 134.1705 0001566 107.2561 252.8738 13.10369425244014","launch_date":"2020-02-06","type":"LEO","tle_line1":"1 45144U 20008P   25041.79027501  .00000350  00000+0  96691-3 0  9992","satellite_name":"ONEWEB-0036"},{"norad_id":"45145","company":"ONEWEB","tle_line2":"2 45145  87.8882 119.0227 0002012 126.2630 233.8684 13.11418979245918","launch_date":"2020-02-06","type":"LEO","tle_line1":"1 45145U 20008Q   25041.72936688  .00000424  00000+0  11604-2 0  9993","satellite_name":"ONEWEB-0038"},{"norad_id":"45146","company":"ONEWEB","tle_line2":"2 45146  87.8906 134.1190 0001541 127.5166 232.6102 13.10375310244637","launch_date":"2020-02-06","type":"LEO","tle_line1":"1 45146U 20008R   25042.15380830  .00000575  00000+0  16120-2 0  9999","satellite_name":"ONEWEB-0039"},{"norad_id":"45147","company":"ONEWEB","tle_line2":"2 45147  87.8914 134.1676 0001787 107.8668 252.2655 13.10375242244327","launch_date":"2020-02-06","type":"LEO","tle_line1":"1 45147U 20008S   25041.99443599  .00000272  00000+0  74335-3 0  9990","satellite_name":"ONEWEB-0040"},{"norad_id":"45149","company":"ONEWEB","tle_line2":"2 45149  87.8910 134.2065 0001369 115.4891 244.6378 13.10375877243822","launch_date":"2020-02-06","type":"LEO","tle_line1":"1 45149U 20008U   25041.76703658  .00000359  00000+0  99115-3 0  9991","satellite_name":"ONEWEB-0043"},{"norad_id":"45150","company":"ONEWEB","tle_line2":"2 45150  87.8902 134.1942 0001571 112.8838 247.2455 13.10368755244121","launch_date":"2020-02-06","type":"LEO","tle_line1":"1 45150U 20008V   25041.79525329  .00000077  00000+0  18507-3 0  9996","satellite_name":"ONEWEB-0044"}]